{
  "type": "FeatureCollection",
  "features": [
    {
      "type": "Feature",
      "properties": {
        "norad_id": 44204,
        "name": "BEIDOU-3 IGSO-1 (C38)",
        "group": "gnss",
        "lat": 19.805124789929366,
        "lon": 52.331777443112536,
        "alt_km": 35900.66238938004,
        "timestamp": "2025-12-18T14:52:08.268709+00:00",
        "meta_object_name": "BEIDOU-3 IGSO-1 (C38)",
        "meta_object_id": "2019-023A",
        "meta_epoch": "2025-11-19T14:15:02.708640",
        "meta_mean_motion": 1.00252177,
        "meta_eccentricity": 0.0026966,
        "meta_inclination": 58.4003,
        "meta_ra_of_asc_node": 39.8168,
        "meta_arg_of_pericenter": 221.2202,
        "meta_mean_anomaly": 126.9723,
        "meta_ephemeris_type": 0,
        "meta_classification_type": "U",
        "meta_norad_cat_id": 44204,
        "meta_element_set_no": 999,
        "meta_rev_at_epoch": 510,
        "meta_bstar": 0,
        "meta_mean_motion_dot": -2.26e-06,
        "meta_mean_motion_ddot": 0,
        "tle_line1": "1 44204U 19023A   25323.59378135 -.00000226  00000+0  00000+0 0  9994",
        "tle_line2": "2 44204  58.4003  39.8168 0026966 221.2202 126.9723  1.00252177  5102"
      },
      "geometry": {
        "type": "Point",
        "coordinates": [
          52.331777443112536,
          19.805124789929366
        ]
      }
    },
    {
      "type": "Feature",
      "properties": {
        "norad_id": 44231,
        "name": "BEIDOU-2 G8 (C01)",
        "group": "gnss",
        "lat": 0.6056786321842283,
        "lon": 94.98983784690398,
        "alt_km": 35806.555385311134,
        "timestamp": "2025-12-18T14:52:08.268726+00:00",
        "meta_object_name": "BEIDOU-2 G8 (C01)",
        "meta_object_id": "2019-027A",
        "meta_epoch": "2025-12-18T10:33:26.151264",
        "meta_mean_motion": 1.00266789,
        "meta_eccentricity": 0.000883,
        "meta_inclination": 1.6755,
        "meta_ra_of_asc_node": 74.762,
        "meta_arg_of_pericenter": 259.3084,
        "meta_mean_anomaly": 56.0016,
        "meta_ephemeris_type": 0,
        "meta_classification_type": "U",
        "meta_norad_cat_id": 44231,
        "meta_element_set_no": 999,
        "meta_rev_at_epoch": 2426,
        "meta_bstar": 0,
        "meta_mean_motion_dot": -2.25e-06,
        "meta_mean_motion_ddot": 0,
        "tle_line1": "1 44231U 19027A   25352.43988601 -.00000225  00000+0  00000+0 0  9997",
        "tle_line2": "2 44231   1.6755  74.7620 0008830 259.3084  56.0016  1.00266789 24267"
      },
      "geometry": {
        "type": "Point",
        "coordinates": [
          94.98983784690398,
          0.6056786321842283
        ]
      }
    },
    {
      "type": "Feature",
      "properties": {
        "norad_id": 44299,
        "name": "COSMOS 2534 (758)",
        "group": "gnss",
        "lat": -29.70338696012999,
        "lon": 34.60217174834519,
        "alt_km": 19126.5237361905,
        "timestamp": "2025-12-18T14:52:08.268738+00:00",
        "meta_object_name": "COSMOS 2534 (758)",
        "meta_object_id": "2019-030A",
        "meta_epoch": "2025-12-18T02:32:35.068416",
        "meta_mean_motion": 2.13102441,
        "meta_eccentricity": 0.00087685,
        "meta_inclination": 64.3657,
        "meta_ra_of_asc_node": 198.7122,
        "meta_arg_of_pericenter": 284.1366,
        "meta_mean_anomaly": 255.3295,
        "meta_ephemeris_type": 0,
        "meta_classification_type": "U",
        "meta_norad_cat_id": 44299,
        "meta_element_set_no": 999,
        "meta_rev_at_epoch": 5106,
        "meta_bstar": 0,
        "meta_mean_motion_dot": 1.1e-06,
        "meta_mean_motion_ddot": 0,
        "tle_line1": "1 44299U 19030A   25352.10596144  .00000110  00000+0  00000+0 0  9998",
        "tle_line2": "2 44299  64.3657 198.7122 0008768 284.1366 255.3295  2.13102441 51061"
      },
      "geometry": {
        "type": "Point",
        "coordinates": [
          34.60217174834519,
          -29.70338696012999
        ]
      }
    },
    {
      "type": "Feature",
      "properties": {
        "norad_id": 44337,
        "name": "BEIDOU-3 IGSO-2 (C39)",
        "group": "gnss",
        "lat": -55.165461436658944,
        "lon": 70.33040264278146,
        "alt_km": 35732.62523449058,
        "timestamp": "2025-12-18T14:52:08.268749+00:00",
        "meta_object_name": "BEIDOU-3 IGSO-2 (C39)",
        "meta_object_id": "2019-035A",
        "meta_epoch": "2025-12-17T20:45:00.400608",
        "meta_mean_motion": 1.00269779,
        "meta_eccentricity": 0.00374701,
        "meta_inclination": 55.227,
        "meta_ra_of_asc_node": 160.4563,
        "meta_arg_of_pericenter": 202.3425,
        "meta_mean_anomaly": 154.6367,
        "meta_ephemeris_type": 0,
        "meta_classification_type": "U",
        "meta_norad_cat_id": 44337,
        "meta_element_set_no": 999,
        "meta_rev_at_epoch": 2384,
        "meta_bstar": 0,
        "meta_mean_motion_dot": -4.5e-07,
        "meta_mean_motion_ddot": 0,
        "tle_line1": "1 44337U 19035A   25351.86458797 -.00000045  00000+0  00000+0 0  9997",
        "tle_line2": "2 44337  55.2270 160.4563 0037470 202.3425 154.6367  1.00269779 23848"
      },
      "geometry": {
        "type": "Point",
        "coordinates": [
          70.33040264278146,
          -55.165461436658944
        ]
      }
    },
    {
      "type": "Feature",
      "properties": {
        "norad_id": 44506,
        "name": "GPS BIII-2  (PRN 18)",
        "group": "gnss",
        "lat": -27.159257820080665,
        "lon": -42.1737028480254,
        "alt_km": 20278.94723674787,
        "timestamp": "2025-12-18T14:52:08.268761+00:00",
        "meta_object_name": "GPS BIII-2  (PRN 18)",
        "meta_object_id": "2019-056A",
        "meta_epoch": "2025-12-18T07:32:42.973728",
        "meta_mean_motion": 2.00566635,
        "meta_eccentricity": 0.00577192,
        "meta_inclination": 55.7194,
        "meta_ra_of_asc_node": 338.3313,
        "meta_arg_of_pericenter": 198.5145,
        "meta_mean_anomaly": 267.0868,
        "meta_ephemeris_type": 0,
        "meta_classification_type": "U",
        "meta_norad_cat_id": 44506,
        "meta_element_set_no": 999,
        "meta_rev_at_epoch": 4644,
        "meta_bstar": 0,
        "meta_mean_motion_dot": -8.5e-07,
        "meta_mean_motion_ddot": 0,
        "tle_line1": "1 44506U 19056A   25352.31438627 -.00000085  00000+0  00000+0 0  9993",
        "tle_line2": "2 44506  55.7194 338.3313 0057719 198.5145 267.0868  2.00566635 46446"
      },
      "geometry": {
        "type": "Point",
        "coordinates": [
          -42.1737028480254,
          -27.159257820080665
        ]
      }
    },
    {
      "type": "Feature",
      "properties": {
        "norad_id": 44542,
        "name": "BEIDOU-3 M24 (C46)",
        "group": "gnss",
        "lat": -32.899049529143575,
        "lon": 36.448968201154955,
        "alt_km": 21557.94478884215,
        "timestamp": "2025-12-18T14:52:08.268772+00:00",
        "meta_object_name": "BEIDOU-3 M24 (C46)",
        "meta_object_id": "2019-061A",
        "meta_epoch": "2025-12-16T03:22:44.327712",
        "meta_mean_motion": 1.86229353,
        "meta_eccentricity": 0.00096014,
        "meta_inclination": 54.4001,
        "meta_ra_of_asc_node": 188.9011,
        "meta_arg_of_pericenter": 24.8001,
        "meta_mean_anomaly": 335.316,
        "meta_ephemeris_type": 0,
        "meta_classification_type": "U",
        "meta_norad_cat_id": 44542,
        "meta_element_set_no": 999,
        "meta_rev_at_epoch": 4238,
        "meta_bstar": 0,
        "meta_mean_motion_dot": 1.15e-06,
        "meta_mean_motion_ddot": 0,
        "tle_line1": "1 44542U 19061A   25350.14079083  .00000115  00000+0  00000+0 0  9998",
        "tle_line2": "2 44542  54.4001 188.9011 0009601  24.8001 335.3160  1.86229353 42381"
      },
      "geometry": {
        "type": "Point",
        "coordinates": [
          36.448968201154955,
          -32.899049529143575
        ]
      }
    },
    {
      "type": "Feature",
      "properties": {
        "norad_id": 44543,
        "name": "BEIDOU-3 M23 (C45)",
        "group": "gnss",
        "lat": 35.24895752247538,
        "lon": -21.642409383420635,
        "alt_km": 21529.867440045196,
        "timestamp": "2025-12-18T14:52:08.268783+00:00",
        "meta_object_name": "BEIDOU-3 M23 (C45)",
        "meta_object_id": "2019-061B",
        "meta_epoch": "2025-12-18T04:28:40.463616",
        "meta_mean_motion": 1.86227759,
        "meta_eccentricity": 0.00060655,
        "meta_inclination": 54.3991,
        "meta_ra_of_asc_node": 188.8006,
        "meta_arg_of_pericenter": 24.5513,
        "meta_mean_anomaly": 179.8901,
        "meta_ephemeris_type": 0,
        "meta_classification_type": "U",
        "meta_norad_cat_id": 44543,
        "meta_element_set_no": 999,
        "meta_rev_at_epoch": 4242,
        "meta_bstar": 0,
        "meta_mean_motion_dot": 1.09e-06,
        "meta_mean_motion_ddot": 0,
        "tle_line1": "1 44543U 19061B   25352.18657944  .00000109  00000+0  00000+0 0  9996",
        "tle_line2": "2 44543  54.3991 188.8006 0006065  24.5513 179.8901  1.86227759 42425"
      },
      "geometry": {
        "type": "Point",
        "coordinates": [
          -21.642409383420635,
          35.24895752247538
        ]
      }
    }
  ]
}